[{"OBJECT_NAME":"STARLINK-30848","OBJECT_ID":"2023-171L","EPOCH":"2026-03-09T00:29:43.459296","MEAN_MOTION":15.26738956,"ECCENTRICITY":0.00018158,"INCLINATION":43.0006,"RA_OF_ASC_NODE":288.8677,"ARG_OF_PERICENTER":274.3753,"MEAN_ANOMALY":85.6891,"EPHEMERIS_TYPE":0,"CLASSIFICATION_TYPE":"U","NORAD_CAT_ID":58240,"ELEMENT_SET_NO":999,"REV_AT_EPOCH":12963,"BSTAR":-4.475902e-5,"MEAN_MOTION_DOT":-1.46e-5,"MEAN_MOTION_DDOT":0},{"OBJECT_NAME":"YAOGAN-43 01G","OBJECT_ID":"2024-148G","EPOCH":"2026-03-09T10:38:37.087584","MEAN_MOTION":15.28332833,"ECCENTRICITY":0.00073829,"INCLINATION":35.0006,"RA_OF_ASC_NODE":62.0013,"ARG_OF_PERICENTER":306.3543,"MEAN_ANOMALY":53.6492,"EPHEMERIS_TYPE":0,"CLASSIFICATION_TYPE":"U","NORAD_CAT_ID":60464,"ELEMENT_SET_NO":999,"REV_AT_EPOCH":8700,"BSTAR":0.00035872736,"MEAN_MOTION_DOT":0.00010133,"MEAN_MOTION_DDOT":0}]
